{
  "type": "FeatureCollection",
  "features": [
    {
      "type": "Feature",
      "properties": {
        "norad_id": 31512,
        "name": "FENGYUN 1C DEB",
        "group": "fengyun-1c-debris",
        "lat": 25.601737262430365,
        "lon": 74.86950589622468,
        "alt_km": 656.6994495287527,
        "timestamp": "2025-12-20T22:39:10.908383+00:00",
        "meta_object_name": "FENGYUN 1C DEB",
        "meta_object_id": "1999-025BXB",
        "meta_epoch": "2025-12-18T13:56:27.156768",
        "meta_mean_motion": 14.43835972,
        "meta_eccentricity": 0.01445609,
        "meta_inclination": 98.8044,
        "meta_ra_of_asc_node": 248.1662,
        "meta_arg_of_pericenter": 129.5728,
        "meta_mean_anomaly": 348.1165,
        "meta_ephemeris_type": 0,
        "meta_classification_type": "U",
        "meta_norad_cat_id": 31512,
        "meta_element_set_no": 999,
        "meta_rev_at_epoch": 65586,
        "meta_bstar": 0.00030439423,
        "meta_mean_motion_dot": 1.125e-05,
        "meta_mean_motion_ddot": 0,
        "tle_line1": "1 31512U 99025BXB 25352.58086987  .00001125  00000+0  30439-3 0  9995",
        "tle_line2": "2 31512  98.8044 248.1662 0144560 129.5728 348.1165 14.43835972655864"
      },
      "geometry": {
        "type": "Point",
        "coordinates": [
          74.86950589622468,
          25.601737262430365
        ]
      }
    },
    {
      "type": "Feature",
      "properties": {
        "norad_id": 31513,
        "name": "FENGYUN 1C DEB",
        "group": "fengyun-1c-debris",
        "lat": 29.896085134675804,
        "lon": 86.70156787592013,
        "alt_km": 774.5011464007239,
        "timestamp": "2025-12-20T22:39:10.908392+00:00",
        "meta_object_name": "FENGYUN 1C DEB",
        "meta_object_id": "1999-025BXC",
        "meta_epoch": "2025-11-25T02:15:23.832576",
        "meta_mean_motion": 14.32315683,
        "meta_eccentricity": 0.00282412,
        "meta_inclination": 98.8622,
        "meta_ra_of_asc_node": 65.435,
        "meta_arg_of_pericenter": 176.3464,
        "meta_mean_anomaly": 183.7931,
        "meta_ephemeris_type": 0,
        "meta_classification_type": "U",
        "meta_norad_cat_id": 31513,
        "meta_element_set_no": 999,
        "meta_rev_at_epoch": 72616,
        "meta_bstar": 0.0023967664,
        "meta_mean_motion_dot": 6.459e-05,
        "meta_mean_motion_ddot": 0,
        "tle_line1": "1 31513U 99025BXC 25329.09402584  .00006459  00000+0  23968-2 0  9994",
        "tle_line2": "2 31513  98.8622  65.4350 0028241 176.3464 183.7931 14.32315683726161"
      },
      "geometry": {
        "type": "Point",
        "coordinates": [
          86.70156787592013,
          29.896085134675804
        ]
      }
    },
    {
      "type": "Feature",
      "properties": {
        "norad_id": 31514,
        "name": "FENGYUN 1C DEB",
        "group": "fengyun-1c-debris",
        "lat": -35.25138604781889,
        "lon": -97.32176221659414,
        "alt_km": 851.1982025575271,
        "timestamp": "2025-12-20T22:39:10.908401+00:00",
        "meta_object_name": "FENGYUN 1C DEB",
        "meta_object_id": "1999-025BXD",
        "meta_epoch": "2025-12-19T16:24:15.540480",
        "meta_mean_motion": 14.21027591,
        "meta_eccentricity": 0.00535231,
        "meta_inclination": 99.2475,
        "meta_ra_of_asc_node": 254.7477,
        "meta_arg_of_pericenter": 95.0297,
        "meta_mean_anomaly": 265.6991,
        "meta_ephemeris_type": 0,
        "meta_classification_type": "U",
        "meta_norad_cat_id": 31514,
        "meta_element_set_no": 999,
        "meta_rev_at_epoch": 69423,
        "meta_bstar": 0.0011245302,
        "meta_mean_motion_dot": 2.427e-05,
        "meta_mean_motion_ddot": 0,
        "tle_line1": "1 31514U 99025BXD 25353.68351320  .00002427  00000+0  11245-2 0  9994",
        "tle_line2": "2 31514  99.2475 254.7477 0053523  95.0297 265.6991 14.21027591694232"
      },
      "geometry": {
        "type": "Point",
        "coordinates": [
          -97.32176221659414,
          -35.25138604781889
        ]
      }
    },
    {
      "type": "Feature",
      "properties": {
        "norad_id": 31516,
        "name": "FENGYUN 1C DEB",
        "group": "fengyun-1c-debris",
        "lat": 61.61018961626592,
        "lon": 94.18532667130752,
        "alt_km": 894.8134694030032,
        "timestamp": "2025-12-20T22:39:10.908410+00:00",
        "meta_object_name": "FENGYUN 1C DEB",
        "meta_object_id": "1999-025BXF",
        "meta_epoch": "2025-12-20T14:00:03.752928",
        "meta_mean_motion": 14.25427717,
        "meta_eccentricity": 0.01487004,
        "meta_inclination": 98.8325,
        "meta_ra_of_asc_node": 110.5421,
        "meta_arg_of_pericenter": 215.7732,
        "meta_mean_anomaly": 159.1271,
        "meta_ephemeris_type": 0,
        "meta_classification_type": "U",
        "meta_norad_cat_id": 31516,
        "meta_element_set_no": 999,
        "meta_rev_at_epoch": 96604,
        "meta_bstar": 0.00033245407,
        "meta_mean_motion_dot": 8.34e-06,
        "meta_mean_motion_ddot": 0,
        "tle_line1": "1 31516U 99025BXF 25354.58337677  .00000834  00000+0  33245-3 0  9990",
        "tle_line2": "2 31516  98.8325 110.5421 0148700 215.7732 159.1271 14.25427717966045"
      },
      "geometry": {
        "type": "Point",
        "coordinates": [
          94.18532667130752,
          61.61018961626592
        ]
      }
    },
    {
      "type": "Feature",
      "properties": {
        "norad_id": 31519,
        "name": "FENGYUN 1C DEB",
        "group": "fengyun-1c-debris",
        "lat": 55.89399538758816,
        "lon": -175.84278309153993,
        "alt_km": 811.7545188675003,
        "timestamp": "2025-12-20T22:39:10.908419+00:00",
        "meta_object_name": "FENGYUN 1C DEB",
        "meta_object_id": "1999-025BXJ",
        "meta_epoch": "2025-12-19T19:04:45.982560",
        "meta_mean_motion": 14.23412147,
        "meta_eccentricity": 0.00519537,
        "meta_inclination": 98.5733,
        "meta_ra_of_asc_node": 350.1666,
        "meta_arg_of_pericenter": 221.7648,
        "meta_mean_anomaly": 137.9561,
        "meta_ephemeris_type": 0,
        "meta_classification_type": "U",
        "meta_norad_cat_id": 31519,
        "meta_element_set_no": 999,
        "meta_rev_at_epoch": 64865,
        "meta_bstar": 0.00031493652,
        "meta_mean_motion_dot": 6.82e-06,
        "meta_mean_motion_ddot": 0,
        "tle_line1": "1 31519U 99025BXJ 25353.79497665  .00000682  00000+0  31494-3 0  9994",
        "tle_line2": "2 31519  98.5733 350.1666 0051953 221.7648 137.9561 14.23412147648656"
      },
      "geometry": {
        "type": "Point",
        "coordinates": [
          -175.84278309153993,
          55.89399538758816
        ]
      }
    },
    {
      "type": "Feature",
      "properties": {
        "norad_id": 31522,
        "name": "FENGYUN 1C DEB",
        "group": "fengyun-1c-debris",
        "lat": -12.987971607346843,
        "lon": 14.835541469407058,
        "alt_km": 915.363698670114,
        "timestamp": "2025-12-20T22:39:10.908428+00:00",
        "meta_object_name": "FENGYUN 1C DEB",
        "meta_object_id": "1999-025BXM",
        "meta_epoch": "2025-12-20T00:28:53.364576",
        "meta_mean_motion": 14.04009093,
        "meta_eccentricity": 0.00433989,
        "meta_inclination": 98.7066,
        "meta_ra_of_asc_node": 11.925,
        "meta_arg_of_pericenter": 179.793,
        "meta_mean_anomaly": 180.3263,
        "meta_ephemeris_type": 0,
        "meta_classification_type": "U",
        "meta_norad_cat_id": 31522,
        "meta_element_set_no": 999,
        "meta_rev_at_epoch": 95098,
        "meta_bstar": 0.00025429721,
        "meta_mean_motion_dot": 3.64e-06,
        "meta_mean_motion_ddot": 0,
        "tle_line1": "1 31522U 99025BXM 25354.02006209  .00000364  00000+0  25430-3 0  9995",
        "tle_line2": "2 31522  98.7066  11.9250 0043398 179.7930 180.3263 14.04009093950986"
      },
      "geometry": {
        "type": "Point",
        "coordinates": [
          14.835541469407058,
          -12.987971607346843
        ]
      }
    },
    {
      "type": "Feature",
      "properties": {
        "norad_id": 31523,
        "name": "FENGYUN 1C DEB",
        "group": "fengyun-1c-debris",
        "lat": 56.272670452132964,
        "lon": -124.33122303158648,
        "alt_km": 817.5241258075539,
        "timestamp": "2025-12-20T22:39:10.908438+00:00",
        "meta_object_name": "FENGYUN 1C DEB",
        "meta_object_id": "1999-025BXN",
        "meta_epoch": "2025-12-18T09:00:27.931392",
        "meta_mean_motion": 14.13860711,
        "meta_eccentricity": 0.00394646,
        "meta_inclination": 98.7566,
        "meta_ra_of_asc_node": 39.8049,
        "meta_arg_of_pericenter": 94.418,
        "meta_mean_anomaly": 281.6008,
        "meta_ephemeris_type": 0,
        "meta_classification_type": "U",
        "meta_norad_cat_id": 31523,
        "meta_element_set_no": 999,
        "meta_rev_at_epoch": 96087,
        "meta_bstar": 2.5829225e-05,
        "meta_mean_motion_dot": 6e-08,
        "meta_mean_motion_ddot": 0,
        "tle_line1": "1 31523U 99025BXN 25352.37532328  .00000006  00000+0  25829-4 0  9994",
        "tle_line2": "2 31523  98.7566  39.8049 0039464  94.4180 281.6008 14.13860711960879"
      },
      "geometry": {
        "type": "Point",
        "coordinates": [
          -124.33122303158648,
          56.272670452132964
        ]
      }
    }
  ]
}